CO3D 4                  
1 64901U 25156C   26061.29158243  .00001237  00000+0  60250-4 0  9997
2 64901  97.4334 141.5187 0000254 280.3117  79.8089 15.20203154 33293
LEMUR-2-LAILA           
1 66776U 25276DQ  26068.72945049  .00007609  00000+0  35559-3 0  9997
2 66776  97.4243 144.1425 0002283 132.0154 228.1276 15.20071210 15334
